KUIPER-00044            
1 64505U 25134F   25333.19821979  .00005689  00000+0  77371-3 0  9992
2 64505  51.9001 330.9681 0011010 300.5716  59.4160 14.79959862 25005
KUIPER-00046            
1 64506U 25134G   25333.19885872  .00006152  00000+0  82666-3 0  9994
2 64506  51.8995 327.3952 0012142 311.8072  48.1853 14.80340125 25052
KUIPER-00047            
1 64507U 25134H   25333.20388346  .00005027  00000+0  64260-3 0  9991
2 64507  51.8985 299.2823 0008115 325.8363  34.2077 14.82814069 25441
KUIPER-00048            
1 64508U 25134J   25333.16473524  .00005650  00000+0  76834-3 0  9992
2 64508  51.8999 300.1064 0002842  82.7127 277.4158 14.80000263 25435
KUIPER-00049            
1 64509U 25134K   25333.21701815 -.00001754  00000+0 -20089-3 0  9990
2 64509  51.9001 313.3426 0002437 335.4280  24.6566 14.79959488 25252
KUIPER-00050            
1 64510U 25134L   25333.22147553  .00008060  00000+0  72522-3 0  9990
2 64510  51.8906 308.3800 0004883 354.4402   5.6513 14.96399967 25329
KUIPER-00051            
1 64511U 25134M   25333.21976777  .00000888  00000+0  14549-3 0  9993
2 64511  51.9037 310.8969 0001852 333.4116  26.6751 14.79923034 25283
KUIPER-00052            
1 64512U 25134N   25333.08287899  .00213179  00000+0  17828-2 0  9990
2 64512  51.8660 264.1623 0005507  40.7274 319.4137 15.68789839 25910
